A/2021 E4,e,116.3599,171.1729,48.2861,727.6625,0.0000502,0.99357409,0.0000,04/25.3771/2022,2000,g 13.5,2.0
# From MPEC 2021-R75
A/2021 F1,e,107.3217,203.4488,146.8177,238.5386,0.0002675,0.99582651,0.0000,04/06.8716/2022,2000,g 17.5,2.0
# From MPEC 2021-J72
C/2021 G1 (Leonard),e,131.5661,270.6931,107.4806,75.16941,0.0015123,0.95445410,0.0828,09/15.0/2021,2000,g 14.0,4.0
# From MPEC 2021-M79
A/2021 G2,e,48.4746,221.1345,343.3824,4482,0.0000033,0.99888968,0.0000,09/09.9336/2024,2000,g  8.5,2.0
# From MPEC 2021-M86
C/2021 G3 (PANSTARRS),h,10/18.6694/2021,102.8834,147.4188,10.6555,1.001141,5.181132,2000,10.5,4.0
# From MPEC 2021-R75
C/2021 J1 (Maury-Attard),e,92.7077,88.3144,147.3033,26.24413,0.0073309,0.93368785,1.5216,09/15.0/2021,2000,g 15.5,4.0
# From MPEC 2021-R75
C/2021 J2 (PANSTARRS),e,156.2071,23.3291,172.0608,116.8373,0.0007804,0.95971566,359.9942,09/15.0/2021,2000,g 12.0,4.0
# From MPEC 2021-R75
P/2021 J3 (ATLAS),e,14.5633,111.2296,125.8231,8.933805,0.0369105,0.45025503,29.6650,09/15.0/2021,2000,g  7.0,4.0
# From MPEC 2021-R75
C/2021 K1 (ATLAS),e,16.2760,140.9054,184.3000,12.73466,0.0216882,0.80385920,2.8940,09/15.0/2021,2000,g 11.0,4.0
# From MPEC 2021-R75
C/2021 K2 (MASTER),h,09/09.0945/2021,100.8400,282.2477,343.3164,1.000623,5.466622,2000,8.0,4.0
# From MPEC 2021-R75
C/2021 K3 (Catalina),h,02/02.3315/2022,134.8077,114.4384,181.9566,1.007191,5.231069,2000,10.0,4.0
# From MPEC 2021-R75
P/2021 L2 (Leonard),e,21.0686,266.6718,51.5331,4.053864,0.1207537,0.52179699,6.3366,09/15.0/2021,2000,g 17.0,4.0
# From MPEC 2021-R75
C/2021 L3 (Borisov),h,02/12.1889/2022,78.5799,344.9724,91.5115,1.001994,8.459921,2000,6.0,4.0
# From MPEC 2021-R75
P/2021 L4 (PANSTARRS),e,16.9617,243.2250,234.6297,3.165000,0.1750425,0.11861929,129.8595,09/15.0/2021,2000,g 13.5,4.0
# From MPEC 2021-P47
P/2021 N1 (ZTF),e,11.5060,301.1633,21.1905,2.977000,0.1918827,0.67678602,19.2741,09/15.0/2021,2000,g 19.0,4.0
# From MPEC 2021-R75
P/2021 N2 (Fuls),e,13.0612,221.7459,177.2390,6.940036,0.0539090,0.45283967,356.8379,09/15.0/2021,2000,g  9.5,4.0
# From MPEC 2021-R75
C/2021 N3 (PANSTARRS),e,26.7336,337.5072,304.3495,167.5746,0.0004544,0.96600028,0.1790,09/15.0/2021,2000,g  8.5,4.0
# From MPEC 2021-R75
P/2021 N4,e,10.0670,239.1567,105.2972,3.037444,0.1861837,0.24246628,2.8664,09/15.0/2021,2000,g 17.0,4.0
# From MPEC 2021-R75
C/2021 O1 (Nishimura),h,08/13.9282/2021,27.5725,41.6082,74.4508,1.000176,0.786988,2000,10.5,4.0
# From MPEC 2021-R75
C/2021 O3 (PANSTARRS),h,04/20.9966/2022,56.7735,189.0265,299.9829,1.000249,0.287174,2000,10.5,4.0
# From MPEC 2021-R75
C/2021 P1 (PANSTARRS),h,06/01.6940/2022,51.6213,359.6713,40.3646,1.000152,4.374826,2000,11.0,4.0
# From MPEC 2021-R75
C/2021 P2 (PANSTARRS),e,150.0189,31.9930,76.4945,1914,0.0000118,0.99735048,0.0000,01/21.9288/2023,2000,g  9.0,4.0
# From MPEC 2021-R75
P/2021 P3 (PANSTARRS),e,27.1620,358.2368,334.3227,4.420356,0.1060518,0.34012517,11.3065,09/15.0/2021,2000,g 14.0,4.0
# From MPEC 2021-R75
C/2021 P4 (ATLAS),e,56.3256,348.1212,175.7629,267.9792,0.0002247,0.99595715,0.0000,07/30.8237/2022,2000,g  9.5,4.0
# From MPEC 2021-R75
C/2021 Q3 (ATLAS),e,77.7702,308.0146,113.7203,79.26003,0.0013968,0.93419739,359.8182,09/15.0/2021,2000,g  8.0,4.0
# From MPEC 2021-R75
C/2021 Q4 (Fuls),h,06/08.8266/2023,71.4745,183.3302,146.8855,1.003506,7.567816,2000,6.0,4.0
# From MPEC 2021-R98
P/2021 Q5 (ATLAS),e,10.7295,239.7003,180.8116,3.228226,0.1699254,0.61814731,2.6606,09/15.0/2021,2000,g 15.0,4.0
# From MPEC 2021-RG7
C/2021 Q6 (PANSTARRS),e,161.8468,133.5432,140.7791,7004,0.0000017,0.99875536,0.0000,03/21.0375/2024,2000,g  6.0,4.0
# From MPEC 2021-RF0
P/2021 R1 (PANSTARRS),e,5.5211,143.4076,220.2561,8.445686,0.0401561,0.42150827,356.2649,09/15.0/2021,2000,g 11.0,4.0
# From MPEC 2021-RF1
C/2021 R2 (PANSTARRS),e,134.4890,16.2955,32.7553,99549,0.0000000,0.99992658,0.0000,12/31.2779/2021,2000,g  7.5,4.0
# From MPEC 2021-RP5
P/2021 R3 (PANSTARRS),e,19.9308,304.2496,3.0069,3.780048,0.1341091,0.33191914,14.8699,09/15.0/2021,2000,g 16.0,4.0
# From MPEC 2021-RP6
P/2021 R4 (Wierzchos),e,21.0348,321.2471,56.5409,5.616127,0.0740540,0.58587695,357.8776,09/15.0/2021,2000,g 16.0,4.0
# From MPEC 2021-RP7
P/2021 R5 (Rankin),e,7.8488,219.9868,166.8857,4.802872,0.0936381,0.30752946,349.0663,09/15.0/2021,2000,g 12.0,4.0
# From  98, 1083
1P/Halley,e,162.2464,58.7864,111.7196,17.87287,0.0130441,0.96620059,169.6192,09/15.0/2021,2000,g  4.0,6.0
# From MPEC 2021-R75
2P/Encke,e,11.8060,334.5141,186.6218,2.217805,0.2984138,0.84912371,132.8768,09/15.0/2021,2000,g 11.5,6.0
# From MPEC 2021-R75
4P/Faye,e,8.0083,192.9316,206.9962,3.823458,0.1318316,0.57659890,0.8134,09/15.0/2021,2000,g  8.0,6.0
# From MPEC 2021-R75
6P/d'Arrest,e,19.5124,138.9355,178.1007,3.498468,0.1506216,0.61279931,359.5815,09/15.0/2021,2000,g  7.5,16.0
# From MPEC 2021-R75
7P/Pons-Winnecke,e,22.3624,93.3719,172.5975,3.414371,0.1562205,0.63852578,17.3229,09/15.0/2021,2000,g 10.0,6.0
# From MPEC 2021-R75
8P/Tuttle,e,54.9108,270.2040,207.4865,5.708046,0.0722725,0.82025081,1.3200,09/15.0/2021,2000,g  8.0,8.0
# From MPEC 2021-F20
9P/Tempel,e,10.4697,68.7173,179.3427,3.146555,0.1765839,0.50923321,329.8149,09/15.0/2021,2000,g 12.5,4.0
# From MPEC 2021-R75
10P/Tempel,e,12.0395,117.8082,195.4949,3.060803,0.1840565,0.53853862,32.1627,09/15.0/2021,2000,g  5.0,10.0
# From MPEC 2017-L52
11P/Tempel-Swift-LINEAR,e,14.4205,238.9067,167.9543,3.283513,0.1656517,0.57708555,48.4959,09/15.0/2021,2000,g  9.0,4.0
# From  27, 604
12P/Pons-Brooks,e,74.1326,255.7716,198.9965,17.14319,0.0138857,0.95439392,346.8263,09/15.0/2021,2000,g  5.0,6.0
# From  27, 604
13P/Olbers,e,44.6214,85.9126,64.4399,16.72531,0.0144093,0.92975874,345.2976,09/15.0/2021,2000,g  5.0,6.0
# From MPEC 2021-F20
14P/Wolf,e,27.9149,202.0513,159.0204,4.258527,0.1121540,0.35703935,155.0011,09/15.0/2021,2000,g  5.5,12.0
# From MPEC 2021-R75
15P/Finlay,e,6.7976,13.7137,347.8240,3.505524,0.1501671,0.71702040,9.5396,09/15.0/2021,2000,g 12.0,4.0
# From MPC 92276
16P/Brooks,e,3.0119,138.8699,245.1782,3.655801,0.1410036,0.48626556,21.1257,09/15.0/2021,2000,g  7.5,10.0
# From MPEC 2021-R75
17P/Holmes,e,19.0322,326.6200,24.4757,3.635360,0.1421945,0.42762766,29.4574,09/15.0/2021,2000,g 10.0,6.0
# From MPEC 2021-P47
19P/Borrelly,e,29.3044,74.2522,351.9014,3.605877,0.1439421,0.63771395,339.8752,09/15.0/2021,2000,g  4.5,10.0
# From MPEC 2021-F20
21P/Giacobini-Zinner,e,32.0405,195.3476,172.8602,3.495684,0.1508016,0.71103452,165.9091,09/15.0/2021,2000,g 11.4,4.0
# From MPEC 2021-F20
22P/Kopff,e,4.7419,120.8358,163.0058,3.440843,0.1544212,0.54881605,331.5799,09/15.0/2021,2000,g 12.4,4.0
# From MPC 14747
23P/Brorsen-Metcalf,e,19.1363,312.4070,128.8126,16.94923,0.0141247,0.97142738,0.0000,08/04.9390/1989,2000,g 10.0,6.0
# From MPC110085
24P/Schaumasse,e,11.5319,78.5898,58.2673,4.053205,0.1207831,0.70823726,169.3706,09/15.0/2021,2000,g  6.5,14.0
# From MPC 94674
26P/Grigg-Skjellerup,e,22.4338,211.5399,2.1776,3.014378,0.1883248,0.64032803,203.3735,09/15.0/2021,2000,g 12.0,16.0
# From MPC 78188
27P/Crommelin,e,29.2190,250.6103,195.9345,9.184806,0.0354078,0.91831439,131.2539,09/15.0/2021,2000,g 12.0,8.0
# From MPEC 2021-R75
28P/Neujmin,e,14.3120,346.3318,347.4100,6.975532,0.0534981,0.77373695,10.0107,09/15.0/2021,2000,g  8.5,6.0
# From MPEC 2021-R75
29P/Schwassmann-Wachmann,e,9.3667,312.3763,49.3692,6.039750,0.0664011,0.04470550,59.7817,09/15.0/2021,2000,g  4.0,4.0
# From MPC110085
30P/Reinmuth,e,8.2286,118.3022,9.6535,3.696858,0.1386612,0.52447075,212.4607,09/15.0/2021,2000,g  9.5,6.0
# From MPEC 2021-F20
31P/Schwassmann-Wachmann,e,4.5473,114.1102,18.1107,4.238375,0.1129549,0.19213207,90.7514,09/15.0/2021,2000,g 13.1,4.0
# From MPC 92276
32P/Comas Sola,e,9.8725,56.0348,54.4538,4.508063,0.1029720,0.55968401,262.2385,09/15.0/2021,2000,g  6.5,8.0
# From MPEC 2013-O31
33P/Daniel,e,22.3001,66.3194,20.5341,4.085696,0.1193452,0.45164882,222.2277,09/15.0/2021,2000,g 10.0,12.0
# From  15, 452
35P/Herschel-Rigollet,e,65.176,356.671,28.969,28.5594,0.006458,0.9739157,0.000,01/04.5022/2092,2000,g  9.0,4.0
# From MPEC 2021-F20
36P/Whipple,e,9.9518,181.8491,200.8697,4.133774,0.1172692,0.26894348,55.2241,09/15.0/2021,2000,g 14.2,4.0
# From MPEC 2021-F20
37P/Forbes,e,8.9573,314.5599,330.1211,3.460397,0.1531141,0.53375039,188.2836,09/15.0/2021,2000,g 13.8,4.0
# From MPEC 2018-S50
38P/Stephan-Oterma,e,18.3643,77.9614,359.5044,11.23784,0.0261625,0.85900889,27.1821,09/15.0/2021,2000,g  3.5,12.0
# From MPEC 2020-W26
39P/Oterma,e,1.5575,299.1349,96.2958,7.379165,0.0491692,0.22363244,329.5836,09/15.0/2021,2000,g  7.0,6.0
# From MPC100283
40P/Vaisala,e,11.4692,133.7775,47.4162,4.952672,0.0894221,0.62962083,223.6405,09/15.0/2021,2000,g  5.5,12.0
# From MPC105240
41P/Tuttle-Giacobini-Kresak,e,9.2209,140.9873,62.2394,3.087325,0.1816898,0.65997392,293.9694,09/15.0/2021,2000,g 10.0,16.0
# From MPC 94283
42P/Neujmin,e,3.9912,150.1762,147.2245,4.872984,0.0916245,0.58530050,215.1187,09/15.0/2021,2000,g 13.0,6.0
# From MPC102956
43P/Wolf-Harrington,e,9.3387,244.1440,224.1213,4.315338,0.1099466,0.43582692,203.7027,09/15.0/2021,2000,g  8.0,6.0
# From MPEC 2021-R75
44P/Reinmuth,e,5.8982,286.4811,58.1265,3.689750,0.1390621,0.42747998,329.3477,09/15.0/2021,2000,g  8.3,6.0
# From MPC103849
45P/Honda-Mrkos-Pajdusakova,e,4.3232,87.7064,327.9138,3.052274,0.1848285,0.81749423,318.8666,09/15.0/2021,2000,g 13.5,8.0
# From MPEC 2021-O56
46P/Wirtanen,e,11.7443,82.1571,356.3386,3.092003,0.1812777,0.65832735,182.7061,09/15.0/2021,2000,g 14.0,6.0
# From MPEC 2021-F20
47P/Ashbrook-Jackson,e,13.0402,356.9206,357.6432,4.123736,0.1176976,0.31845530,183.1523,09/15.0/2021,2000,g 12.2,4.0
# From MPEC 2021-F20
48P/Johnson,e,12.2059,110.1227,216.6663,3.500871,0.1504665,0.42743801,169.8836,09/15.0/2021,2000,g 12.4,4.0
# From MPEC 2021-F20
49P/Arend-Rigaux,e,19.0456,118.7977,332.9405,3.569861,0.1461259,0.59822385,169.3378,09/15.0/2021,2000,g 13.4,4.0
# From MPEC 2015-S97
50P/Arend,e,19.1005,355.1764,49.3092,4.088688,0.1192142,0.52907379,244.2104,09/15.0/2021,2000,g  9.5,6.0
# From NK 3014
